NORAD_CAT_ID,OBJECT_NAME,OBJECT_TYPE,EPOCH,MEAN_MOTION,ECCENTRICITY,INCLINATION,RA_OF_ASC_NODE,ARG_OF_PERICENTER,MEAN_ANOMALY,BSTAR,MEAN_MOTION_DOT,MEAN_MOTION_DDOT,TLE_LINE0,TLE_LINE1,TLE_LINE2,SEMIMAJOR_AXIS,PERIOD,APOGEE,PERIGEE,DECAYED
53920.0,STARLINK-5025,PAYLOAD,2023-05-19 00:00:43,15.08830187,3.49e-05,53.2161,238.4091,89.8594,270.2438,-2.4075e-05,-6.7e-06,0.0,0 STARLINK-5025,1 53920U 22119AL  23139.00049907 -.00000670  00000-0 -24075-4 0  9998,2 53920  53.2161 238.4091 0000349  89.8594 270.2438 15.08830187 36562,6917.91,95.438,540.017,539.534,0.0
53920.0,STARLINK-5025,PAYLOAD,2023-05-19 11:08:25,15.08837347,0.0001234,53.2164,236.3266,82.8799,277.2333,1.0293e-05,-1.24e-06,0.0,0 STARLINK-5025,1 53920U 22119AL  23139.46417876 -.00000124  00000-0  10293-4 0  9992,2 53920  53.2164 236.3266 0001234  82.8799 277.2333 15.08837347 37051,6917.888,95.438,540.607,538.9,0.0
53920.0,STARLINK-5025,PAYLOAD,2023-05-19 23:51:29,15.08843084,0.0001083,53.2161,233.9466,85.3026,274.809,5.7626e-05,6.3e-06,0.0,0 STARLINK-5025,1 53920U 22119AL  23139.99409244  .00000630  00000-0  57626-4 0  9992,2 53920  53.2161 233.9466 0001083  85.3026 274.8090 15.08843084 36716,6917.871,95.437,540.485,538.987,0.0
53920.0,STARLINK-5025,PAYLOAD,2023-05-20 10:59:10,15.08850727,0.0001119,53.2165,231.866,81.5029,278.609,0.00017081,2.432e-05,0.0,0 STARLINK-5025,1 53920U 22119AL  23140.45776472  .00002432  00000-0  17081-3 0  9997,2 53920  53.2165 231.8660 0001119  81.5029 278.6090 15.08850727 36785,6917.848,95.437,540.487,538.938,0.0
53920.0,STARLINK-5025,PAYLOAD,2023-05-20 15:45:19,15.08862624,0.0001158,53.2162,230.9717,103.0411,257.071,0.00026161,3.881e-05,0.0,0 STARLINK-5025,1 53920U 22119AL  23140.65647479  .00003881  00000-0  26161-3 0  9991,2 53920  53.2162 230.9717 0001158 103.0411 257.0710 15.08862624 36816,6917.811,95.436,540.477,538.875,0.0
53920.0,STARLINK-5025,PAYLOAD,2023-05-21 09:14:35,15.08841182,9.82e-05,53.2156,227.7019,91.324,268.7864,9.2327e-05,1.182e-05,0.0,0 STARLINK-5025,1 53920U 22119AL  23141.38513191  .00001182  00000-0  92327-4 0  9995,2 53920  53.2156 227.7019 0000982  91.3240 268.7864 15.08841182 36928,6917.877,95.437,540.421,539.062,0.0
53920.0,STARLINK-5025,PAYLOAD,2023-05-21 10:49:58,15.08841609,0.0001074,53.2155,227.4047,84.0363,276.0752,0.00010105,1.321e-05,0.0,0 STARLINK-5025,1 53920U 22119AL  23141.45137268  .00001321  00000-0  10105-3 0  9998,2 53920  53.2155 227.4047 0001074  84.0363 276.0752 15.08841609 37353,6917.875,95.437,540.483,538.997,0.0
53920.0,STARLINK-5025,PAYLOAD,2023-05-21 12:25:21,15.08844186,0.0001074,53.2155,227.1069,84.1583,275.9532,6.5076e-05,7.48e-06,0.0,0 STARLINK-5025,1 53920U 22119AL  23141.51761034  .00000748  00000-0  65076-4 0  9999,2 53920  53.2155 227.1069 0001074  84.1583 275.9532 15.08844186 37367,6917.868,95.437,540.476,538.99,0.0
53920.0,STARLINK-5025,PAYLOAD,2023-05-22 12:16:08,15.08840712,0.0001028,53.2152,222.6466,94.8412,265.2698,4.0704e-05,3.6e-06,0.0,0 STARLINK-5025,1 53920U 22119AL  23142.51121224  .00000360  00000-0  40704-4 0  9992,2 53920  53.2152 222.6466 0001028  94.8412 265.2698 15.08840712 37516,6917.878,95.438,540.454,539.032,0.0
53920.0,STARLINK-5025,PAYLOAD,2023-05-23 10:31:33,15.08833577,0.0001031,53.2146,218.4844,97.254,262.8569,0.00011278,1.507e-05,0.0,0 STARLINK-5025,1 53920U 22119AL  23143.43858013  .00001507  00000-0  11278-3 0  9994,2 53920  53.2146 218.4844 0001031  97.2540 262.8569 15.08833577 37235,6917.9,95.438,540.478,539.052,0.0
53920.0,STARLINK-5025,PAYLOAD,2023-05-23 21:39:15,15.08836455,0.0001007,53.2146,216.4034,100.9747,259.1359,0.00015182,2.129e-05,0.0,0 STARLINK-5025,1 53920U 22119AL  23143.90226024  .00002129  00000-0  15182-3 0  9996,2 53920  53.2146 216.4034 0001007 100.9747 259.1359 15.08836455 37726,6917.891,95.438,540.453,539.06,0.0
53920.0,STARLINK-5025,PAYLOAD,2023-05-24 13:33:06,15.08844766,0.0001023,53.2142,213.43,101.5311,258.5796,0.00020919,3.043e-05,0.0,0 STARLINK-5025,1 53920U 22119AL  23144.56465685  .00003043  00000-0  20919-3 0  9997,2 53920  53.2142 213.4300 0001023 101.5311 258.5796 15.08844766 37404,6917.866,95.437,540.439,539.023,0.0
53920.0,STARLINK-5025,PAYLOAD,2023-05-26 03:42:21,15.08842276,0.0001304,53.2162,206.2945,105.6246,254.489,3.8413e-05,3.24e-06,0.0,0 STARLINK-5025,1 53920U 22119AL  23146.15441918  .00000324  00000-0  38413-4 0  9995,2 53920  53.2162 206.2945 0001304 105.6246 254.4890 15.08842276 37645,6917.873,95.437,540.641,538.836,0.0
53920.0,STARLINK-5025,PAYLOAD,2023-05-26 10:03:54,15.08844593,0.0001382,53.2163,205.1016,128.6733,231.4383,9.0638e-05,1.155e-05,0.0,0 STARLINK-5025,1 53920U 22119AL  23146.41937725  .00001155  00000-0  90638-4 0  9990,2 53920  53.2163 205.1016 0001382 128.6733 231.4383 15.08844593 38103,6917.866,95.437,540.687,538.775,0.0
53920.0,STARLINK-5025,PAYLOAD,2023-05-27 09:54:41,15.08837478,0.0001067,53.2156,200.6415,87.7164,272.395,1.5225e-05,-4.5e-07,0.0,0 STARLINK-5025,1 53920U 22119AL  23147.41298461 -.00000045  00000-0  15225-4 0  9995,2 53920  53.2156 200.6415 0001067  87.7164 272.3950 15.08837478 37838,6917.888,95.438,540.491,539.015,0.0
53920.0,STARLINK-5025,PAYLOAD,2023-05-27 21:02:23,15.08840431,0.0001057,53.2157,198.5601,85.0251,275.0862,5.3175e-05,5.59e-06,0.0,0 STARLINK-5025,1 53920U 22119AL  23147.87666188  .00000559  00000-0  53175-4 0  9995,2 53920  53.2157 198.5601 0001057  85.0251 275.0862 15.08840431 38328,6917.879,95.438,540.475,539.013,0.0
53920.0,STARLINK-5025,PAYLOAD,2023-05-28 06:34:42,15.08844467,0.0001006,53.2152,196.7759,79.2043,280.9063,7.531e-05,9.11e-06,0.0,0 STARLINK-5025,1 53920U 22119AL  23148.27409864  .00000911  00000-0  75310-4 0  9993,2 53920  53.2152 196.7759 0001006  79.2043 280.9063 15.08844467 38382,6917.867,95.437,540.428,539.036,0.0
53920.0,STARLINK-5025,PAYLOAD,2023-05-28 09:45:28,15.08846317,0.0001024,53.2153,196.1812,79.9799,280.1309,8.8188e-05,1.116e-05,0.0,0 STARLINK-5025,1 53920U 22119AL  23148.40657674  .00001116  00000-0  88188-4 0  9997,2 53920  53.2153 196.1812 0001024  79.9799 280.1309 15.08846317 37988,6917.861,95.437,540.434,539.018,0.0
53920.0,STARLINK-5025,PAYLOAD,2023-05-29 03:14:43,15.08838479,0.0001026,53.2152,192.9103,78.0535,282.0572,8.9263e-05,1.133e-05,0.0,0 STARLINK-5025,1 53920U 22119AL  23149.13522107  .00001133  00000-0  89263-4 0  9994,2 53920  53.2152 192.9103 0001026  78.0535 282.0572 15.08838479 38090,6917.885,95.438,540.46,539.04,0.0
53920.0,STARLINK-5025,PAYLOAD,2023-05-29 09:36:15,15.08839355,0.0001037,53.2152,191.7207,78.5175,281.5934,8.8588e-05,1.122e-05,0.0,0 STARLINK-5025,1 53920U 22119AL  23149.40018049  .00001122  00000-0  88588-4 0  9996,2 53920  53.2152 191.7207 0001037  78.5175 281.5934 15.08839355 38550,6917.882,95.438,540.465,539.03,0.0
53920.0,STARLINK-5025,PAYLOAD,2023-05-30 07:51:39,15.08837672,0.0001057,53.2151,187.5571,85.7375,274.3738,-2.6894e-05,-7.16e-06,0.0,0 STARLINK-5025,1 53920U 22119AL  23150.32754469 -.00000716  00000-0 -26894-4 0  9994,2 53920  53.2151 187.5571 0001057  85.7375 274.3738 15.08837672 38271,6917.888,95.438,540.484,539.021,0.0
53920.0,STARLINK-5025,PAYLOAD,2023-05-30 09:27:02,15.08837362,0.0001104,53.2155,187.2608,91.7889,268.323,-1.6583e-05,-5.52e-06,0.0,0 STARLINK-5025,1 53920U 22119AL  23150.39378454 -.00000552  00000-0 -16583-4 0  9999,2 53920  53.2155 187.2608 0001104  91.7889 268.3230 15.08837362 38707,6917.888,95.438,540.517,538.99,0.0
53920.0,STARLINK-5025,PAYLOAD,2023-05-30 18:59:21,15.08837894,0.0001094,53.2154,185.4766,92.036,268.0757,-5.7529e-06,-3.79e-06,0.0,0 STARLINK-5025,1 53920U 22119AL  23150.79122421 -.00000379  00000-0 -57529-5 0  9997,2 53920  53.2154 185.4766 0001094  92.0360 268.0757 15.08837894 38764,6917.887,95.438,540.509,538.995,0.0
53920.0,STARLINK-5025,PAYLOAD,2023-05-31 07:42:26,15.08838843,0.0001075,53.2153,183.0971,90.8981,269.2134,5.6271e-05,6.08e-06,0.0,0 STARLINK-5025,1 53920U 22119AL  23151.32114245  .00000608  00000-0  56271-4 0  9997,2 53920  53.2153 183.0971 0001075  90.8981 269.2134 15.08838843 38845,6917.884,95.438,540.493,539.005,0.0
53920.0,STARLINK-5025,PAYLOAD,2023-06-01 01:11:41,15.08834553,0.0001047,53.2153,179.8261,85.9455,274.1656,5.8294e-05,6.4e-06,0.0,0 STARLINK-5025,1 53920U 22119AL  23152.04978690  .00000640  00000-0  58294-4 0  9992,2 53920  53.2153 179.8261 0001047  85.9455 274.1656 15.08834553 38534,6917.897,95.438,540.486,539.038,0.0
53920.0,STARLINK-5025,PAYLOAD,2023-06-01 10:44:00,15.08835869,0.000107,53.2151,178.041,87.9523,272.1592,6.3641e-05,7.25e-06,0.0,0 STARLINK-5025,1 53920U 22119AL  23152.44722733  .00000725  00000-0  63641-4 0  9997,2 53920  53.2151 178.0410 0001070  87.9523 272.1592 15.08835869 39015,6917.893,95.438,540.498,539.018,0.0
53920.0,STARLINK-5025,PAYLOAD,2023-06-02 10:34:47,15.08841006,0.0001119,53.2154,173.5802,85.8561,274.2559,5.2716e-05,5.51e-06,0.0,0 STARLINK-5025,1 53920U 22119AL  23153.44082561  .00000551  00000-0  52716-4 0  9994,2 53920  53.2154 173.5802 0001119  85.8561 274.2559 15.08841006 38741,6917.877,95.437,540.516,538.968,0.0
53920.0,STARLINK-5025,PAYLOAD,2023-06-02 18:31:43,15.08836546,0.0001134,53.2155,172.0929,82.9915,277.1206,4.8332e-05,4.81e-06,0.0,0 STARLINK-5025,1 53920U 22119AL  23153.77202945  .00000481  00000-0  48332-4 0  9991,2 53920  53.2155 172.0929 0001134  82.9915 277.1206 15.08836546 39211,6917.891,95.438,540.54,538.971,0.0
53920.0,STARLINK-5025,PAYLOAD,2023-06-03 10:25:34,15.08835385,0.00011,53.2151,169.1193,83.836,276.2757,2.3901e-05,9.3e-07,0.0,0 STARLINK-5025,1 53920U 22119AL  23154.43443252  .00000093  00000-0  23901-4 0  9997,2 53920  53.2151 169.1193 0001100  83.8360 276.2757 15.08835385 38898,6917.894,95.438,540.52,538.999,0.0
53920.0,STARLINK-5025,PAYLOAD,2023-06-03 18:22:30,15.0883771,0.000111,53.2152,167.6331,82.3005,277.8113,3.7394e-05,3.07e-06,0.0,0 STARLINK-5025,1 53920U 22119AL  23154.76563119  .00000307  00000-0  37394-4 0  9997,2 53920  53.2152 167.6331 0001110  82.3005 277.8113 15.08837710 39367,6917.887,95.438,540.52,538.985,0.0
